{
  "links" : {
    "next" : "https://api.nasa.gov/neo/rest/v1/feed?start_date=2012-07-16&end_date=2012-07-16&detailed=true&api_key=t0TVs3DtDT2H8Oy2Zy8m2eVrNsAVKAexjcZXUckd",
    "prev" : "https://api.nasa.gov/neo/rest/v1/feed?start_date=2012-07-14&end_date=2012-07-14&detailed=true&api_key=t0TVs3DtDT2H8Oy2Zy8m2eVrNsAVKAexjcZXUckd",
    "self" : "https://api.nasa.gov/neo/rest/v1/feed?start_date=2012-07-15&end_date=2012-07-15&detailed=true&api_key=t0TVs3DtDT2H8Oy2Zy8m2eVrNsAVKAexjcZXUckd"
  },
  "element_count" : 5,
  "near_earth_objects" : {
    "2012-07-15" : [ {
      "links" : {
        "self" : "https://api.nasa.gov/neo/rest/v1/neo/2162854?api_key=t0TVs3DtDT2H8Oy2Zy8m2eVrNsAVKAexjcZXUckd"
      },
      "neo_reference_id" : "2162854",
      "name" : "162854 (2001 DE47)",
      "nasa_jpl_url" : "http://ssd.jpl.nasa.gov/sbdb.cgi?sstr=2162854",
      "absolute_magnitude_h" : 19.1,
      "estimated_diameter" : {
        "kilometers" : {
          "estimated_diameter_min" : 0.4023045798,
          "estimated_diameter_max" : 0.8995803882
        },
        "meters" : {
          "estimated_diameter_min" : 402.3045798343,
          "estimated_diameter_max" : 899.5803881691
        },
        "miles" : {
          "estimated_diameter_min" : 0.2499803991,
          "estimated_diameter_max" : 0.5589731654
        },
        "feet" : {
          "estimated_diameter_min" : 1319.8969577037,
          "estimated_diameter_max" : 2951.3793207207
        }
      },
      "is_potentially_hazardous_asteroid" : false,
      "close_approach_data" : [ {
        "close_approach_date" : "2012-07-15",
        "epoch_date_close_approach" : 1342335600000,
        "relative_velocity" : {
          "kilometers_per_second" : "11.1410408876",
          "kilometers_per_hour" : "40107.7471952387",
          "miles_per_hour" : "24921.3943613971"
        },
        "miss_distance" : {
          "astronomical" : "0.4583368441",
          "lunar" : "178.2930297852",
          "kilometers" : "68566216",
          "miles" : "42605072"
        },
        "orbiting_body" : "Earth"
      } ],
      "orbital_data" : {
        "orbit_id" : "42",
        "orbit_determination_date" : "2017-04-06 09:26:24",
        "orbit_uncertainty" : "0",
        "minimum_orbit_intersection" : ".214004",
        "jupiter_tisserand_invariant" : "4.862",
        "epoch_osculation" : "2458000.5",
        "eccentricity" : ".1493579627014401",
        "semi_major_axis" : "1.32292378805863",
        "inclination" : "21.26523155355708",
        "ascending_node_longitude" : "122.4368331936925",
        "orbital_period" : "555.777121989752",
        "perihelion_distance" : "1.125334586264921",
        "perihelion_argument" : "297.7298536948962",
        "aphelion_distance" : "1.520512989852338",
        "perihelion_time" : "2457976.984646115842",
        "mean_anomaly" : "15.23187454710148",
        "mean_motion" : ".6477416679390378",
        "equinox" : "J2000"
      }
    }, {
      "links" : {
        "self" : "https://api.nasa.gov/neo/rest/v1/neo/2329614?api_key=t0TVs3DtDT2H8Oy2Zy8m2eVrNsAVKAexjcZXUckd"
      },
      "neo_reference_id" : "2329614",
      "name" : "329614 (2003 KU2)",
      "nasa_jpl_url" : "http://ssd.jpl.nasa.gov/sbdb.cgi?sstr=2329614",
      "absolute_magnitude_h" : 17.6,
      "estimated_diameter" : {
        "kilometers" : {
          "estimated_diameter_min" : 0.8027031673,
          "estimated_diameter_max" : 1.7948988478
        },
        "meters" : {
          "estimated_diameter_min" : 802.7031672829,
          "estimated_diameter_max" : 1794.8988477988
        },
        "miles" : {
          "estimated_diameter_min" : 0.4987764698,
          "estimated_diameter_max" : 1.115298092
        },
        "feet" : {
          "estimated_diameter_min" : 2633.5406593483,
          "estimated_diameter_max" : 5888.7759358124
        }
      },
      "is_potentially_hazardous_asteroid" : true,
      "close_approach_data" : [ {
        "close_approach_date" : "2012-07-15",
        "epoch_date_close_approach" : 1342335600000,
        "relative_velocity" : {
          "kilometers_per_second" : "17.1202866499",
          "kilometers_per_hour" : "61633.0319396522",
          "miles_per_hour" : "38296.3692071689"
        },
        "miss_distance" : {
          "astronomical" : "0.1034193891",
          "lunar" : "40.230140686",
          "kilometers" : "15471320",
          "miles" : "9613433"
        },
        "orbiting_body" : "Earth"
      } ],
      "orbital_data" : {
        "orbit_id" : "89",
        "orbit_determination_date" : "2017-04-06 09:23:34",
        "orbit_uncertainty" : "0",
        "minimum_orbit_intersection" : ".0265543",
        "jupiter_tisserand_invariant" : "2.989",
        "epoch_osculation" : "2458000.5",
        "eccentricity" : ".6770108661653951",
        "semi_major_axis" : "2.688157244860056",
        "inclination" : "5.401797083454948",
        "ascending_node_longitude" : "105.262627467688",
        "orbital_period" : "1609.831536377284",
        "perihelion_distance" : ".8682455801285673",
        "perihelion_argument" : "246.7490584182229",
        "aphelion_distance" : "4.508068909591544",
        "perihelion_time" : "2457774.428247931811",
        "mean_anomaly" : "50.55549534561614",
        "mean_motion" : ".2236258837431729",
        "equinox" : "J2000"
      }
    }, {
      "links" : {
        "self" : "https://api.nasa.gov/neo/rest/v1/neo/3283679?api_key=t0TVs3DtDT2H8Oy2Zy8m2eVrNsAVKAexjcZXUckd"
      },
      "neo_reference_id" : "3283679",
      "name" : "(2005 NE21)",
      "nasa_jpl_url" : "http://ssd.jpl.nasa.gov/sbdb.cgi?sstr=3283679",
      "absolute_magnitude_h" : 21.2,
      "estimated_diameter" : {
        "kilometers" : {
          "estimated_diameter_min" : 0.1529519353,
          "estimated_diameter_max" : 0.3420109247
        },
        "meters" : {
          "estimated_diameter_min" : 152.9519353442,
          "estimated_diameter_max" : 342.0109247198
        },
        "miles" : {
          "estimated_diameter_min" : 0.095039897,
          "estimated_diameter_max" : 0.2125156703
        },
        "feet" : {
          "estimated_diameter_min" : 501.8108275547,
          "estimated_diameter_max" : 1122.0831222578
        }
      },
      "is_potentially_hazardous_asteroid" : false,
      "close_approach_data" : [ {
        "close_approach_date" : "2012-07-15",
        "epoch_date_close_approach" : 1342335600000,
        "relative_velocity" : {
          "kilometers_per_second" : "10.7725506616",
          "kilometers_per_hour" : "38781.1823816668",
          "miles_per_hour" : "24097.1185748751"
        },
        "miss_distance" : {
          "astronomical" : "0.1555240203",
          "lunar" : "60.498840332",
          "kilometers" : "23266062",
          "miles" : "14456861"
        },
        "orbiting_body" : "Earth"
      } ],
      "orbital_data" : {
        "orbit_id" : "20",
        "orbit_determination_date" : "2017-04-06 09:10:47",
        "orbit_uncertainty" : "1",
        "minimum_orbit_intersection" : ".0565464",
        "jupiter_tisserand_invariant" : "7.257",
        "epoch_osculation" : "2458000.5",
        "eccentricity" : ".4963801982710231",
        "semi_major_axis" : ".7892632538738696",
        "inclination" : "10.63367302909255",
        "ascending_node_longitude" : "289.7666111107345",
        "orbital_period" : "256.1127811955777",
        "perihelion_distance" : ".3974886034279254",
        "perihelion_argument" : "194.6834126481515",
        "aphelion_distance" : "1.181037904319814",
        "perihelion_time" : "2458061.577708133887",
        "mean_anomaly" : "274.1472954783596",
        "mean_motion" : "1.405630747202304",
        "equinox" : "J2000"
      }
    } ]
  }
}